STARLINK-32413          
1 61590U 24187S   26153.85037135 -.00001609  00000+0 -36496-4 0  9991
2 61590  53.1616  28.6483 0001345 109.9745 250.1403 15.34395435 92136
STARLINK-32409          
1 61591U 24187T   26154.33340278  .00017005  00000+0  51370-3 0  9993
2 61591  53.1597  11.9708 0001002 102.5907 155.4195 15.34372692  5824
STARLINK-32422          
1 61592U 24187U   26153.81049052 -.00000190  00000+0  57240-5 0  9994
2 61592  53.1611  14.1860 0001474 108.4061 251.7100 15.30188531 92336
STARLINK-32397          
1 61593U 24187V   26153.83718446 -.00003653  00000+0 -97064-4 0  9992
2 61593  53.1602  26.4400 0000975  70.7117 289.3992 15.34395735 92168
ONEWEB-0015             
1 61594U 24188A   26155.64419672 -.00000180  00000+0 -54362-3 0  9999
2 61594  87.8896  23.5896 0002318  79.6833 280.4556 13.11415241 82818
ONEWEB-0687             
1 61595U 24188B   26155.09381818  .00000033  00000+0  50616-4 0  9993
2 61595  87.9135   8.4818 0002327  91.5540 268.5858 13.17650844 84179
ONEWEB-0688             
1 61596U 24188C   26155.65405746  .00000071  00000+0  15084-3 0  9994
2 61596  87.9138   8.3700 0002993  77.1153 283.0313 13.17647762 84242
ONEWEB-0689             
1 61597U 24188D   26155.67810926 -.00000017  00000+0 -83829-4 0  9992
2 61597  87.8911  23.5395 0001906  92.9237 267.2109 13.11419414 82814
ONEWEB-0690             
1 61598U 24188E   26155.15421358  .00000425  00000+0  11635-2 0  9998
2 61598  87.8912  23.6550 0001610  58.7372 301.3914 13.11419090 82928
ONEWEB-0691             
1 61599U 24188F   26155.14912607  .00000456  00000+0  12509-2 0  9995
2 61599  87.8918  23.5642 0002194  83.8391 276.2987 13.11417929 82776
ONEWEB-0692             
1 61600U 24188G   26155.16946878  .00000509  00000+0  14009-2 0  9993
2 61600  87.8896  23.6760 0001351 108.0060 252.1215 13.11416694 82767
ONEWEB-0693             
1 61601U 24188H   26155.66586374  .00000038  00000+0  65650-4 0  9997
2 61601  87.9135   8.3882 0001752  58.4765 301.6538 13.17651465 84230
ONEWEB-0695             
1 61602U 24188J   26155.67980166  .00000023  00000+0  28132-4 0  9994
2 61602  87.8902  23.5663 0001751 102.6796 257.4528 13.11418515 82824
ONEWEB-0697             
1 61603U 24188K   26155.17794284  .00000245  00000+0  65644-3 0  9998
2 61603  87.8894  23.6567 0001279 108.3101 251.8167 13.11415815 82745
ONEWEB-0698             
1 61604U 24188L   26155.15590173  .00000515  00000+0  14175-2 0  9990
2 61604  87.8894  23.6753 0000676  65.3392 294.7806 13.11418523 82764
ONEWEB-0699             
1 61605U 24188M   26155.69287275 -.00000481  00000+0 -14137-2 0  9998
2 61605  87.8840  38.7538 0001256  96.9694 263.1577 13.10370134 81672
ONEWEB-0700             
1 61606U 24188N   26155.69452970 -.00000376  00000+0 -11145-2 0  9994
2 61606  87.8855  38.6614 0001618 104.8665 255.2641 13.10371482 81662
ONEWEB-0701             
1 61607U 24188P   26155.17662659 -.00000406  00000+0 -11986-2 0  9992
2 61607  87.8855  38.8552 0001098  98.2372 261.8880 13.10376913 81605
ONEWEB-0702             
1 61608U 24188Q   26155.65946029 -.00000694  00000+0 -19932-2 0  9990
2 61608  87.8917  23.4767 0001257 108.4732 251.6533 13.11417321 82843
ONEWEB-0704             
1 61609U 24188R   26155.69951128 -.00000679  00000+0 -19807-2 0  9995
2 61609  87.8853  38.7402 0001651 114.6545 245.4755 13.10372712 81655
ONEWEB-0705             
1 61610U 24188S   26155.16997931 -.00000629  00000+0 -18388-2 0  9999
2 61610  87.8854  38.8515 0002406 106.0438 254.0955 13.10373663 73755
ONEWEB-0706             
1 61611U 24188T   26155.68955492 -.00000223  00000+0 -67417-3 0  9991
2 61611  87.8839  38.7545 0001753  99.2712 260.8613 13.10370784 81748
ONEWEB-0707             
1 61612U 24188U   26155.69618953 -.00000551  00000+0 -16150-2 0  9992
2 61612  87.8850  38.7480 0001768 111.4446 248.6870 13.10370528 81685
ONEWEB-0708             
1 61613U 24188V   26155.17995015 -.00000190  00000+0 -58097-3 0  9999
2 61613  87.8855  38.8676 0002273  90.5717 269.5671 13.10377729 81590
TIANPING 3A-01          
1 61614U 24189A   26155.98053986  .00003782  00000+0  30004-3 0  9998
2 61614  97.5205 176.5964 0002750  60.6820 299.4679 15.01094604 88655
TIANPING 3B-01          
1 61615U 24189B   26155.97985899  .00003107  00000+0  24738-3 0  9993
2 61615  97.5189 176.5038 0003623  55.7206 304.4362 15.01083497 88612
TIANPING 3B-02          
1 61616U 24189C   26155.98019134  .00003072  00000+0  24462-3 0  9990
2 61616  97.5206 176.6120 0002666  68.0609 292.0899 15.01090154 88611
YAOGAN-43 03A           
1 61617U 24190A   26155.79098525  .00008678  00000+0  36180-3 0  9990
2 61617  34.9915 275.6936 0005335 225.8505 134.1771 15.22945375 89975
YAOGAN-43 03B           
1 61618U 24190B   26154.80852926  .00009893  00000+0  40918-3 0  9999
2 61618  34.9895 281.7639 0006304 240.5600 119.4485 15.23184016 89828
YAOGAN-43 03C           
1 61619U 24190C   26155.66656549  .00003611  00000+0  15155-3 0  9995
2 61619  34.9968 276.8255 0006344 237.5476 122.4625 15.22943120 89918
STARLINK-32302          
1 61621U 24191A   26152.93500020 -.00001369  00000+0 -40254-4 0  9997
2 61621  43.0044  38.4707 0001014 250.5382 109.5360 15.27575577 91176
STARLINK-32364          
1 61622U 24191B   26152.09525279  .00000150  00000+0  14978-4 0  9997
2 61622  43.0056  43.3503 0001001 302.1043  57.9712 15.27581110 90292
STARLINK-32331          
1 61623U 24191C   26152.10762515  .00000751  00000+0  36839-4 0  9993
2 61623  43.0041  46.9108 0001377 270.1530  89.9164 15.27571474 90252
STARLINK-32398          
1 61624U 24191D   26152.10678366  .00006414  00000+0  24213-3 0  9998
2 61624  43.0008  43.4372 0000973 262.3018  97.7723 15.27615256 90295
STARLINK-32365          
1 61625U 24191E   26152.93757301 -.00000943  00000+0 -24744-4 0  9990
2 61625  43.0053  38.4893 0001387 256.6008 103.4689 15.27569072 90428
STARLINK-32333          
1 61626U 24191F   26152.11918190  .00000451  00000+0  25903-4 0  9996
2 61626  43.0012  46.9957 0001118 265.0400  95.0324 15.27577999 90251
STARLINK-32399          
1 61627U 24191G   26152.06666970 -.00000671  00000+0 -14864-4 0  9997
2 61627  43.0032  36.2081 0000852 286.0178  74.0580 15.27577530 90378
STARLINK-32421          
1 61628U 24191H   26152.76711389 -.00000722  00000+0 -16725-4 0  9995
2 61628  42.9996  39.7907 0000800 258.7748 101.3013 15.27569702 90392
STARLINK-32403          
1 61629U 24191J   26152.10296337  .00000636  00000+0  32622-4 0  9991
2 61629  43.0016  43.4086 0000815 305.0060  55.0715 15.27577174 90292
STARLINK-32390          
1 61630U 24191K   26152.05556342 -.00000174  00000+0  32015-5 0  9997
2 61630  43.0008  43.9092 0001019 258.8390 101.2347 15.27578274 90281
STARLINK-32348          
1 61631U 24191L   26152.11147440  .00000962  00000+0  44484-4 0  9996
2 61631  43.0025  46.9387 0000868 289.4873  70.5885 15.27575057 90256
STARLINK-32455          
1 61632U 24191M   26152.12689504 -.00003390  00000+0 -11370-3 0  9997
2 61632  43.0009  47.0494 0002012 245.8725 114.1917 15.27581827 90258
STARLINK-32396          
1 61633U 24191N   26152.76919920  .00001458  00000+0  62545-4 0  9998
2 61633  43.0018  43.2727 0001105 252.7731 107.3000 15.27559758 90358
STARLINK-32355          
1 61634U 24191P   26152.06408381 -.00004327  00000+0 -14790-3 0  9994
2 61634  43.0037  47.4413 0001502 299.3188  60.7513 15.27554522 90245
STARLINK-32370          
1 61635U 24191Q   26152.93114866 -.00002091  00000+0 -66517-4 0  9994
2 61635  43.0062  38.4348 0000853 250.7381 109.3378 15.27574001 90428
STARLINK-32405          
1 61636U 24191R   26152.13332958  .00003873  00000+0  15018-3 0  9997
2 61636  42.9991  47.1034 0001675  36.4931 323.6035 15.27584205 90259
STARLINK-32419          
1 61637U 24191S   26152.96714582 -.00003419  00000+0 -11488-3 0  9991
2 61637  43.0005  38.7079 0000525 288.1330  71.9464 15.27553532 90422
STARLINK-32320          
1 61638U 24191T   26152.92181281 -.00001558  00000+0 -47128-4 0  9995
2 61638  42.9987  42.6974 0001133 245.2138 114.8595 15.27566822 90376
STARLINK-32341          
1 61639U 24191U   26152.10938377  .00000468  00000+0  26519-4 0  9990
2 61639  43.0004  43.4538 0000964 282.3701  77.7042 15.27581309 90295
STARLINK-32339          
1 61640U 24191V   26152.92728082 -.00007004  00000+0 -24504-3 0  9998
2 61640  43.0062  38.4031 0001351 219.7461 140.3292 15.27604338 90417
STARLINK-32327          
1 61641U 24191W   26152.02600809  .00000649  00000+0  33112-4 0  9998
2 61641  43.0053  43.6900 0001059 275.9349  84.1382 15.27582835 90282
STARLINK-32264          
1 61642U 24191X   26155.91672454  .00210050  00000+0  32206-2 0  9995
2 61642  42.9938  14.2228 0022540 260.7013 138.7001 15.52560156  5941
STARLINK-32337          
1 61643U 24191Y   26152.03372359  .00002378  00000+0  95888-4 0  9996
2 61643  42.9992  43.7510 0001256  34.5806 325.5127 15.27581925 91041
STARLINK-32238          
1 61661U 24193A   26154.96850554 -.00000278  00000+0  27285-5 0  9995
2 61661  53.1625  50.4374 0001135 120.1472 239.9641 15.30190837 89732
STARLINK-32310          
1 61662U 24193B   26154.99066271  .00001118  00000+0  47777-4 0  9994
2 61662  53.1620  49.8750 0002033  49.1541 310.9636 15.31708282 89748
STARLINK-32308          
1 61663U 24193C   26154.96938250 -.00000493  00000+0 -34620-5 0  9998
2 61663  53.1615  49.0290 0001575 117.7660 242.3503 15.34387723 89756
STARLINK-32301          
1 61664U 24193D   26155.00533882  .00000562  00000+0  29885-4 0  9998
2 61664  53.1608  49.9631 0001355  78.8861 281.2293 15.31703993 89748
STARLINK-32439          
1 61665U 24193E   26154.98116665  .00000281  00000+0  21609-4 0  9995
2 61665  53.1616  50.5110 0001241  91.2678 268.8465 15.30195013 89735
STARLINK-32428          
1 61666U 24193F   26155.00216581  .00000364  00000+0  24407-4 0  9999
2 61666  53.1611  49.9409 0001395  63.5038 296.6105 15.30192547 89746
